      2.10          N: GNSS NAV DATA                        RINEX VERSION / TYPE
fic2rin                                 10/16/2020 00:17:44 PGM / RUN BY / DATE
                                                            END OF HEADER
27 20 10 15 10  0  0.0-4.188790917397e-04-8.640199666843e-12 0.000000000000e+00
    6.100000000000e+01-3.775000000000e+01 3.863018053065e-09-2.655176794154e+00
   -2.181157469749e-06 8.427383261733e-03 1.436099410057e-05 5.153680618286e+03
    3.816000000000e+05 2.048909664154e-08-4.870389718367e-01-1.899898052216e-07
    9.776411995716e-01 1.105625000000e+02 5.722841460461e-01-7.626746256023e-09
   -2.535819912792e-10 1.000000000000e+00 2.127000000000e+03 0.000000000000e+00
    2.400000000000e+00 0.000000000000e+00 1.862645149231e-09 6.100000000000e+01
    3.744000000000e+05 4.000000000000e+00
24 20 10 15 10  0  0.0-1.980597153306e-05-4.547473508865e-13 0.000000000000e+00
    3.900000000000e+01 9.768750000000e+01 5.013423114910e-09 1.767170203287e+00
    5.066394805908e-06 1.028004905675e-02 9.333714842796e-06 5.153641380310e+03
    3.816000000000e+05-2.495944499969e-07-2.645840089631e+00 6.891787052155e-08
    9.362139372284e-01 1.864375000000e+02 6.844222018233e-01-8.506068597614e-09
    5.189501877869e-10 1.000000000000e+00 2.127000000000e+03 0.000000000000e+00
    2.400000000000e+00 0.000000000000e+00 2.793967723846e-09 3.900000000000e+01
    3.744000000000e+05 4.000000000000e+00
19 20 10 15 10  0  0.0-9.153317660093e-05 5.002220859751e-12 0.000000000000e+00
    7.900000000000e+01-4.225000000000e+01 3.890876356332e-09-1.870573061105e-01
   -2.160668373108e-06 9.108257829212e-03 1.369789242744e-05 5.153600980759e+03
    3.816000000000e+05-1.564621925354e-07-3.823751195957e-01-2.235174179077e-08
    9.820240977483e-01 1.304062500000e+02 1.734417670646e+00-7.801753545779e-09
   -1.657211886670e-10 1.000000000000e+00 2.127000000000e+03 0.000000000000e+00
    2.400000000000e+00 0.000000000000e+00-1.536682248116e-08 7.900000000000e+01
    3.744000000000e+05 4.000000000000e+00
25 20 10 15 10  0  0.0 5.690380930901e-06 6.025402399246e-12 0.000000000000e+00
    5.100000000000e+01-3.868750000000e+01 5.053424781140e-09-1.878553849765e-01
   -1.978129148483e-06 9.194468497299e-03 3.140419721603e-06 5.153717357635e+03
    3.816000000000e+05-2.980232238770e-08-1.533580924098e+00 8.195638656616e-08
    9.634290894087e-01 3.248437500000e+02 9.305868652611e-01-8.730363654689e-09
   -2.089372745047e-10 1.000000000000e+00 2.127000000000e+03 0.000000000000e+00
    2.400000000000e+00 0.000000000000e+00 5.587935447693e-09 5.100000000000e+01
    3.744000000000e+05 4.000000000000e+00
13 20 10 15 10  0  0.0 5.493359640241e-05 3.751665644813e-12 0.000000000000e+00
    7.100000000000e+01-4.296875000000e+01 3.916591713194e-09 2.966868225262e+00
   -2.155080437660e-06 4.663952859119e-03 1.385062932968e-05 5.153697999954e+03
    3.816000000000e+05 4.097819328308e-08 2.783945005684e+00 2.793967723846e-08
    9.683575755685e-01 1.163437500000e+02 1.046352015756e+00-7.643175511796e-09
   -1.664355041354e-10 1.000000000000e+00 2.127000000000e+03 0.000000000000e+00
    2.400000000000e+00 0.000000000000e+00-1.117587089539e-08 7.100000000000e+01
    3.744000000000e+05 4.000000000000e+00
26 20 10 15 10  0  0.0 2.955892123282e-04 6.252776074689e-12 0.000000000000e+00
    4.200000000000e+01-4.018750000000e+01 5.453441443440e-09-7.323119984085e-01
   -2.084299921989e-06 5.087830591947e-03 2.829357981682e-06 5.153683452606e+03
    3.816000000000e+05 7.264316082001e-08-1.571529614482e+00-2.980232238770e-08
    9.444542446302e-01 3.121250000000e+02 1.975630153040e-01-8.832510766669e-09
   -1.775073938955e-10 1.000000000000e+00 2.127000000000e+03 0.000000000000e+00
    2.400000000000e+00 0.000000000000e+00 6.984919309616e-09 4.200000000000e+01
    3.744000000000e+05 4.000000000000e+00
21 20 10 15 10  0  0.0 5.795015022159e-05 3.979039320257e-12 0.000000000000e+00
    8.800000000000e+01 1.199375000000e+02 4.649122226030e-09-1.994918884448e+00
    6.612390279770e-06 2.383335155901e-02 9.031966328621e-06 5.155014019012e+03
    3.816000000000e+05 1.192092895508e-07 4.907423021410e-01 5.364418029785e-07
    9.549144336648e-01 2.003750000000e+02-1.277173448086e+00-8.034263230741e-09
    6.225259307038e-10 1.000000000000e+00 2.127000000000e+03 0.000000000000e+00
    2.400000000000e+00 0.000000000000e+00-1.024454832077e-08 8.800000000000e+01
    3.744000000000e+05 4.000000000000e+00
23 20 10 15 10  0  0.0 8.591404184699e-05 6.366462912410e-12 0.000000000000e+00
    1.780000000000e+02-5.093750000000e+01 5.074497087458e-09 1.558370733653e+00
   -2.825632691383e-06 1.069638179615e-03 2.736225724220e-06 5.153616718292e+03
    3.816000000000e+05-3.166496753693e-08 1.582837548452e+00-3.539025783539e-08
    9.613945258495e-01 3.252500000000e+02 1.978754189729e+00-8.592500769289e-09
   -4.039453973758e-10 1.000000000000e+00 2.127000000000e+03 0.000000000000e+00
    3.400000000000e+00 0.000000000000e+00-8.381903171539e-09 1.780000000000e+02
    3.744000000000e+05 4.000000000000e+00
18 20 10 15 10  0  0.0 3.072428517044e-04 5.911715561524e-12 0.000000000000e+00
    1.510000000000e+02 9.943750000000e+01 4.684480841716e-09 1.790035690400e+00
    5.304813385010e-06 1.110104727559e-03 7.698312401772e-06 5.153709131241e+03
    3.816000000000e+05 8.381903171539e-08 5.835175779865e-01 2.235174179077e-08
    9.655464863153e-01 2.328125000000e+02 2.833292790314e+00-8.279987751868e-09
    4.932348309248e-10 1.000000000000e+00 2.127000000000e+03 0.000000000000e+00
    2.400000000000e+00 0.000000000000e+00-8.381903171539e-09 9.190000000000e+02
    3.744000000000e+05 4.000000000000e+00
24 20 10 15  9 59 44.0-1.981575042009e-05-4.547473508865e-13 0.000000000000e+00
    1.400000000000e+01 9.768750000000e+01 5.013423114910e-09 1.764836821155e+00
    5.066394805908e-06 1.028004870750e-02 9.333714842796e-06 5.153641391754e+03
    3.815840000000e+05-2.495944499969e-07-2.645839944802e+00 6.891787052155e-08
    9.362139401542e-01 1.864375000000e+02 6.844217527075e-01-8.506068597614e-09
    5.189501877869e-10 1.000000000000e+00 2.127000000000e+03 0.000000000000e+00
    2.400000000000e+00 0.000000000000e+00 2.793967723846e-09 1.400000000000e+01
    3.780900000000e+05 4.000000000000e+00
24 20 10 15 11 59 44.0-1.981947571039e-05-4.547473508865e-13 0.000000000000e+00
    2.700000000000e+01 1.001250000000e+02 4.906632952386e-09 2.815176429752e+00
    5.161389708519e-06 1.028147223406e-02 1.000426709652e-05 5.153637681961e+03
    3.887840000000e+05-2.421438694000e-08-2.645900426225e+00-1.788139343262e-07
    9.362192885827e-01 1.723125000000e+02 6.842871174308e-01-8.206413258623e-09
    5.868101572842e-10 1.000000000000e+00 2.127000000000e+03 0.000000000000e+00
    2.400000000000e+00 0.000000000000e+00 2.793967723846e-09 2.700000000000e+01
    3.816000000000e+05 4.000000000000e+00
 1 20 10 15 12  0  0.0 3.265542909503e-05-2.160049916711e-12 0.000000000000e+00
    2.600000000000e+01 1.024062500000e+02 4.211961159374e-09 2.499016114532e+00
    5.187466740608e-06 1.007668080274e-02 8.841976523399e-06 5.153696538925e+03
    3.888000000000e+05-1.117587089539e-08 5.683580118554e-01-1.713633537292e-07
    9.819336191909e-01 2.190625000000e+02 8.281835549979e-01-7.853541417238e-09
    6.732423289596e-10 1.000000000000e+00 2.127000000000e+03 0.000000000000e+00
    3.400000000000e+00 0.000000000000e+00 5.122274160385e-09 2.600000000000e+01
    3.816000000000e+05 4.000000000000e+00
 5 20 10 15 12  0  0.0-2.345535904169e-05-9.094947017729e-13 0.000000000000e+00
    2.000000000000e+01-3.171875000000e+01 5.345579807713e-09-9.028895981873e-01
   -1.627951860428e-06 6.117949262261e-03 2.438202500343e-06 5.153740394592e+03
    3.888000000000e+05 6.705522537231e-08 1.574212783253e+00 1.639127731323e-07
    9.534644375409e-01 3.275937500000e+02 8.850736756483e-01-8.787151734426e-09
   -2.825117677491e-10 1.000000000000e+00 2.127000000000e+03 0.000000000000e+00
    2.400000000000e+00 0.000000000000e+00-1.117587089539e-08 2.000000000000e+01
    3.816000000000e+05 4.000000000000e+00
 4 20 10 15 12  0  0.0-1.454837620258e-04-3.865352482535e-12 0.000000000000e+00
    3.700000000000e+01-4.031250000000e+01 4.130529195978e-09-2.210261321022e+00
   -2.183020114899e-06 8.452609181404e-04 1.433677971363e-05 5.153633636475e+03
    3.888000000000e+05-7.450580596924e-09 2.687875710847e+00 3.911554813385e-08
    9.604970841246e-01 1.015000000000e+02-2.956890114548e+00-7.829969006781e-09
   -3.625151002090e-10 1.000000000000e+00 2.127000000000e+03 0.000000000000e+00
    2.400000000000e+00 0.000000000000e+00-4.190951585770e-09 3.700000000000e+01
    3.816000000000e+05 4.000000000000e+00
 2 20 10 15 12  0  0.0-5.298713222146e-04-4.888534022029e-12 0.000000000000e+00
    1.190000000000e+02 9.418750000000e+01 4.514116602504e-09 2.708197407247e+00
    4.867091774940e-06 1.991639414337e-02 9.890645742416e-06 5.153799680710e+03
    3.888000000000e+05 2.756714820862e-07 4.892083974248e-01-2.626329660416e-07
    9.608720461204e-01 1.805625000000e+02-1.598053659292e+00-7.818182801552e-09
    4.957349350642e-10 1.000000000000e+00 2.127000000000e+03 0.000000000000e+00
    2.400000000000e+00 0.000000000000e+00-1.769512891769e-08 1.190000000000e+02
    3.816000000000e+05 4.000000000000e+00
 6 20 10 15 12  0  0.0-3.332942724228e-04-2.501110429876e-12 0.000000000000e+00
    1.900000000000e+01 9.100000000000e+01 4.264106188567e-09 2.903006429527e+00
    4.876405000687e-06 1.865851576440e-03 9.467825293541e-06 5.153633714676e+03
    3.888000000000e+05 1.341104507446e-07 5.601118703362e-01 2.048909664154e-08
    9.814621148423e-01 2.062500000000e+02-1.153607772623e+00-8.005690612005e-09
    6.503842339711e-10 1.000000000000e+00 2.127000000000e+03 0.000000000000e+00
    2.400000000000e+00 0.000000000000e+00 4.190951585770e-09 1.900000000000e+01
    3.816000000000e+05 4.000000000000e+00
